PANDORA
1 67395U 80229J   26077.27521991  .00000000  00000-0  37770-3 0    09
2 67395  97.8061  77.3538 0008106  82.3482  33.8870 14.87498595    07
